CCSDS_OEM_VERS = 1.0
CREATION_DATE  = 2017-05-11T11:17:56
ORIGINATOR     = GMAT USER

META_START
OBJECT_NAME          = MOPSSat_alt_35785_km_RAAN_90_101
OBJECT_ID            = SatId
CENTER_NAME          = Earth
REF_FRAME            = EME2000
TIME_SYSTEM          = UTC
START_TIME           = 2017-01-01T00:00:00.000
USEABLE_START_TIME   = 2017-01-01T00:00:00.000
USEABLE_STOP_TIME    = 2017-01-02T00:00:00.000
STOP_TIME            = 2017-01-02T00:00:00.000
INTERPOLATION        = Lagrange
INTERPOLATION_DEGREE = 7 
META_STOP


                                                                                   

2017-01-01T11:27:30.000  -5.074957300084226e+03  -4.606569557170590e+04   8.909452368502865e+01   2.762435699794497e+00  -3.382869017242804e-01  -4.826764557159497e-02
2017-01-01T11:27:40.000  -5.047331928724795e+03  -4.606906921694526e+04   8.861182924936801e+01   2.762638439758334e+00  -3.364421366555697e-01  -4.827123925149444e-02
2017-01-01T11:27:50.000  -5.019704535766545e+03  -4.607242441402960e+04   8.812909897816921e+01   2.762840069063410e+00  -3.345972768916222e-01  -4.827481354421480e-02
2017-01-01T11:28:00.000  -4.992075132099268e+03  -4.607576116204102e+04   8.764633306151622e+01   2.763040587702558e+00  -3.327523229412110e-01  -4.827836844960251e-02
2017-01-01T11:28:10.000  -4.964443728535174e+03  -4.607907946007669e+04   8.716353168813760e+01   2.763239995669247e+00  -3.309072753078725e-01  -4.828190396751516e-02
2017-01-01T11:28:20.000  -4.936810336166481e+03  -4.608237930720320e+04   8.668069505165467e+01   2.763438292954854e+00  -3.290621345137879e-01  -4.828542009777329e-02
2017-01-01T11:28:30.000  -4.909174966100001e+03  -4.608566070249119e+04   8.619782334594416e+01   2.763635479550730e+00  -3.272169010820567e-01  -4.828891684019694e-02
2017-01-01T11:28:40.000  -4.881537629457040e+03  -4.608892364501431e+04   8.571491676513635e+01   2.763831555448140e+00  -3.253715755366925e-01  -4.829239419460465e-02
2017-01-01T11:28:50.000  -4.853898337639390e+03  -4.609216813382025e+04   8.523197550826278e+01   2.764026520636531e+00  -3.235261584203781e-01  -4.829585216078265e-02
2017-01-01T11:29:00.000  -4.826257101971161e+03  -4.609539416797070e+04   8.474899977299781e+01   2.764220375105928e+00  -3.216806502705546e-01  -4.829929073852726e-02
2017-01-01T11:29:10.000  -4.798613933839839e+03  -4.609860174652532e+04   8.426598975812341e+01   2.764413118845967e+00  -3.198350516288410e-01  -4.830270992762802e-02
2017-01-01T11:29:20.000  -4.770968844072482e+03  -4.610179086861421e+04   8.378294565262985e+01   2.764604751850255e+00  -3.179893629993850e-01  -4.830610972794480e-02
2017-01-01T11:29:30.000  -4.743321843559507e+03  -4.610496153336526e+04   8.329986764661439e+01   2.764795274112000e+00  -3.161435848905111e-01  -4.830949013933043e-02
2017-01-01T11:29:40.000  -4.715672943113702e+03  -4.610811373992090e+04   8.281675592881825e+01   2.764984685625023e+00  -3.142977178053066e-01  -4.831285116164848e-02
2017-01-01T11:29:50.000  -4.688022153828036e+03  -4.611124748739472e+04   8.233361069287855e+01   2.765172986381145e+00  -3.124517622655157e-01  -4.831619279472716e-02
2017-01-01T11:30:00.000  -4.660369486810078e+03  -4.611436277490445e+04   8.185043213268791e+01   2.765360176372174e+00  -3.106057187938037e-01  -4.831951503839425e-02
2017-01-01T11:30:10.000  -4.632714953181903e+03  -4.611745960157084e+04   8.136722044239252e+01   2.765546255589835e+00  -3.087595879137524e-01  -4.832281789247620e-02
2017-01-01T11:30:20.000  -4.605058564346232e+03  -4.612053796649040e+04   8.088397582104272e+01   2.765731224024134e+00  -3.069133701676232e-01  -4.832610135676872e-02
2017-01-01T11:30:30.000  -4.577400331628040e+03  -4.612359786877321e+04   8.040069846633085e+01   2.765915081665622e+00  -3.050670660924369e-01  -4.832936543107737e-02
2017-01-01T11:30:40.000  -4.549740266418405e+03  -4.612663930752732e+04   7.991738857710429e+01   2.766097828504477e+00  -3.032206762295744e-01  -4.833261011520082e-02
2017-01-01T11:30:50.000  -4.522078379539849e+03  -4.612966228192874e+04   7.943404634227642e+01   2.766279464534682e+00  -3.013742010824134e-01  -4.833583540900543e-02
2017-01-01T11:31:00.000  -4.494414681882585e+03  -4.613266679115120e+04   7.895067195194360e+01   2.766459989749827e+00  -2.995276411587989e-01  -4.833904131235046e-02
2017-01-01T11:31:10.000  -4.466749184240287e+03  -4.613565283438435e+04   7.846726559451565e+01   2.766639404144193e+00  -2.976809969600814e-01  -4.834222782510750e-02
2017-01-01T11:31:20.000  -4.439081897751636e+03  -4.613862041078417e+04   7.798382746443113e+01   2.766817707709771e+00  -2.958342690105931e-01  -4.834539494710743e-02
2017-01-01T11:31:30.000  -4.411412833535984e+03  -4.614156951951421e+04   7.750035775579103e+01   2.766994900438748e+00  -2.939874578333257e-01  -4.834854267818445e-02
2017-01-01T11:31:40.000  -4.383742002777353e+03  -4.614450015973611e+04   7.701685666382663e+01   2.767170982322926e+00  -2.921405639555387e-01  -4.835167101816611e-02
2017-01-01T11:31:50.000  -4.356069416691980e+03  -4.614741233061432e+04   7.653332438433250e+01   2.767345953354016e+00  -2.902935879065901e-01  -4.835477996687809e-02
2017-01-01T11:32:00.000  -4.328395086512725e+03  -4.615030603131669e+04   7.604976111339396e+01   2.767519813523670e+00  -2.884465302168990e-01  -4.835786952414507e-02
2017-01-01T11:32:10.000  -4.300719023455967e+03  -4.615318126101801e+04   7.556616704680847e+01   2.767692562823684e+00  -2.865993914157360e-01  -4.836093968979434e-02
2017-01-01T11:32:20.000  -4.273041238706199e+03  -4.615603801890257e+04   7.508254237981693e+01   2.767864201246170e+00  -2.847521720301933e-01  -4.836399046365866e-02
2017-01-01T11:32:30.000  -4.245361743383325e+03  -4.615887630416636e+04   7.459888730653174e+01   2.768034728783676e+00  -2.829048725830053e-01  -4.836702184557847e-02
2017-01-01T11:32:40.000  -4.217680548626803e+03  -4.616169611600886e+04   7.411520202140740e+01   2.768204145428694e+00  -2.810574935981628e-01  -4.837003383539329e-02
2017-01-01T11:32:50.000  -4.189997665230733e+03  -4.616449745366850e+04   7.363148671286399e+01   2.768372451175793e+00  -2.792100355765637e-01  -4.837302643297943e-02
2017-01-01T11:33:00.000  -4.162313104086018e+03  -4.616728031637931e+04   7.314774157101336e+01   2.768539646019010e+00  -2.773624990255188e-01  -4.837599963820387e-02
2017-01-01T11:33:10.000  -4.134626876013263e+03  -4.617004470338757e+04   7.266396678473939e+01   2.768705729952855e+00  -2.755148844476011e-01  -4.837895345094186e-02
2017-01-01T11:33:20.000  -4.106938992410089e+03  -4.617279061388692e+04   7.218016255300864e+01   2.768870702968416e+00  -2.736671923838441e-01  -4.838188787100769e-02
2017-01-01T11:33:30.000  -4.079249464603837e+03  -4.617551804708338e+04   7.169632907355992e+01   2.769034565057249e+00  -2.718194233705448e-01  -4.838480289822416e-02
2017-01-01T11:33:40.000  -4.051558304018622e+03  -4.617822700217835e+04   7.121246654582340e+01   2.769197316210381e+00  -2.699715779504131e-01  -4.838769853240438e-02
2017-01-01T11:33:50.000  -4.023865521733367e+03  -4.618091747841399e+04   7.072857516319783e+01   2.769358956421013e+00  -2.681236566430757e-01  -4.839057477340025e-02
2017-01-01T11:34:00.000  -3.996171128846495e+03  -4.618358947503546e+04   7.024465511942286e+01   2.769519485682266e+00  -2.662756599694150e-01  -4.839343162106211e-02
2017-01-01T11:34:10.000  -3.968475136391839e+03  -4.618624299129963e+04   6.976070660711009e+01   2.769678903987700e+00  -2.644275884459598e-01  -4.839626907524814e-02
2017-01-01T11:34:20.000  -3.940777555371149e+03  -4.618887802647071e+04   6.927672981831056e+01   2.769837211331050e+00  -2.625794425870533e-01  -4.839908713581959e-02
2017-01-01T11:34:30.000  -3.913078396769674e+03  -4.619149457981971e+04   6.879272494478727e+01   2.769994407706197e+00  -2.607312229058948e-01  -4.840188580264027e-02
2017-01-01T11:34:40.000  -3.885377671589309e+03  -4.619409265062144e+04   6.830869217859453e+01   2.770150493106981e+00  -2.588829299167497e-01  -4.840466507557323e-02
2017-01-01T11:34:50.000  -3.857675390864008e+03  -4.619667223815178e+04   6.782463171234700e+01   2.770305467527044e+00  -2.570345641359809e-01  -4.840742495447806e-02
2017-01-01T11:35:00.000  -3.829971565692514e+03  -4.619923334168614e+04   6.734054373979170e+01   2.770459330959737e+00  -2.551861260842301e-01  -4.841016543920897e-02
2017-01-01T11:35:10.000  -3.802266207154138e+03  -4.620177596050660e+04   6.685642845433657e+01   2.770612083398544e+00  -2.533376162808005e-01  -4.841288652962260e-02
2017-01-01T11:35:20.000  -3.774559326673981e+03  -4.620430009387020e+04   6.637228605543196e+01   2.770763724835182e+00  -2.514890352680210e-01  -4.841558822554409e-02
2017-01-01T11:35:30.000  -3.746850935580402e+03  -4.620680574104787e+04   6.588811674083807e+01   2.770914255261932e+00  -2.496403835817239e-01  -4.841827052680853e-02
2017-01-01T11:35:40.000  -3.719141045269559e+03  -4.620929290130963e+04   6.540392070950020e+01   2.771063674670764e+00  -2.477916617622232e-01  -4.842093343324540e-02
2017-01-01T11:35:50.000  -3.691429666568032e+03  -4.621176157398214e+04   6.491969815041119e+01   2.771211983056780e+00  -2.459428703117900e-01  -4.842357694474007e-02
2017-01-01T11:36:00.000  -3.663716810368579e+03  -4.621421175839115e+04   6.443544925372066e+01   2.771359180414766e+00  -2.440940097370694e-01  -4.842620106117209e-02
2017-01-01T11:36:10.000  -3.636002487486108e+03  -4.621664345387500e+04   6.395117420821806e+01   2.771505266739993e+00  -2.422450805394710e-01  -4.842880578242979e-02
2017-01-01T11:36:20.000  -3.608286709016408e+03  -4.621905665975040e+04   6.346687320760120e+01   2.771650242026172e+00  -2.403960832391054e-01  -4.843139110837361e-02
2017-01-01T11:36:30.000  -3.580569486069870e+03  -4.622145137533860e+04   6.298254644582341e+01   2.771794106267024e+00  -2.385470183570166e-01  -4.843395703886404e-02
